25593,COSMOS 2364 [GLONASS],1998,675.73,-1.0,-,64.02,Inactive,0,MEO,Kazakhstan,Russia/USSR,Unknown,Unknown,Unknown,1 25593U 98077A   25062.85867742  .00000014  00000+0  00000+0 0  9990,2 25593  64.0249  76.6995 0029263  50.5267 132.0172  2.13102806203633,2.13102806,0.0029263,MEO
25594,COSMOS 2363 [GLONASS],1998,675.73,-1.0,-,64.02,Inactive,0,MEO,Kazakhstan,Russia/USSR,Unknown,Unknown,Unknown,1 25594U 98077B   25068.16253093  .00000030  00000+0  00000+0 0  9997,2 25594  64.0239  76.4421 0026874  42.9844 315.7879  2.13103589203763,2.13103589,0.0026874,MEO
25595,COSMOS 2362 [GLONASS],1998,675.73,-1.0,-,64.03,Inactive,0,MEO,Kazakhstan,Russia/USSR,Unknown,Unknown,Unknown,1 25595U 98077C   25067.24242803  .00000025  00000+0  00000+0 0  9997,2 25595  64.0335  76.6028 0004923  46.3629  16.2074  2.13103520203750,2.1310352,0.0004923,MEO
26564,COSMOS 2375 [GLONASS],2000,675.73,-1.0,-,65.46,Inactive,0,MEO,Kazakhstan,Russia/USSR,Unknown,Unknown,Unknown,1 26564U 00063A   25064.03487100 -.00000067  00000+0  00000+0 0  9994,2 26564  65.4585 329.7837 0007445  15.3903 344.6768  2.13101722189788,2.13101722,0.0007445,MEO
23513,COSMOS 2309 [GLONASS],1995,675.89,-1.0,-,64.32,Inactive,0,MEO,Kazakhstan,Russia/USSR,Unknown,Unknown,Unknown,1 23513U 95009C   25065.35706812 -.00000054  00000+0  00000+0 0  9995,2 23513  64.3176 317.9115 0034844 215.7767 353.7668  2.13051955233331,2.13051955,0.0034844,MEO
23620,COSMOS 2316 [GLONASS],1995,675.73,-1.0,-,65.47,Inactive,0,MEO,Kazakhstan,Russia/USSR,Unknown,Unknown,Unknown,1 23620U 95037A   25064.92943193  .00000068  00000+0  00000+0 0  9996,2 23620  65.4735 217.9675 0013456 149.7155 213.3727  2.13101314230469,2.13101314,0.0013456,MEO
23621,COSMOS 2317 [GLONASS],1995,675.73,-1.0,-,65.48,Inactive,0,MEO,Kazakhstan,Russia/USSR,Unknown,Unknown,Unknown,1 23621U 95037B   25068.38329425  .00000021  00000+0  00000+0 0  9996,2 23621  65.4833 217.9958 0009572 164.1811 193.4956  2.13101552230340,2.13101552,0.0009572,MEO
23734,COSMOS 2325 [GLONASS],1995,675.73,-1.0,-,65.48,Inactive,0,MEO,Kazakhstan,Russia/USSR,Unknown,Unknown,Unknown,1 23734U 95068A   25068.31711493  .00000022  00000+0  00000+0 0  9999,2 23734  65.4774 217.8283 0019793 222.2613 326.4368  2.13102642227488,2.13102642,0.0019793,MEO
23735,COSMOS 2324 [GLONASS],1995,675.73,-1.0,-,65.47,Inactive,0,MEO,Kazakhstan,Russia/USSR,Unknown,Unknown,Unknown,1 23735U 95068B   25066.78196465  .00000047  00000+0  00000+0 0  9992,2 23735  65.4749 217.8222 0003682 113.2152 246.7976  2.13102571227526,2.13102571,0.0003682,MEO
23736,COSMOS 2323 [GLONASS],1995,675.73,-1.0,-,65.47,Inactive,0,MEO,Kazakhstan,Russia/USSR,Unknown,Unknown,Unknown,1 23736U 95068C   25065.45380160  .00000064  00000+0  00000+0 0  9992,2 23736  65.4663 217.7676 0008773 183.1699 150.1922  2.13103385227233,2.13103385,0.0008773,MEO
