[
    {
        "OBJECT_NAME": "COSMOS 2309 [GLONASS]",
        "OBJECT_ID": "1995-009C",
        "EPOCH": "2025-03-06T08:34:10.685568",
        "MEAN_MOTION": 2.13051955,
        "ECCENTRICITY": 0.0034844,
        "INCLINATION": 64.3176,
        "RA_OF_ASC_NODE": 317.9115,
        "ARG_OF_PERICENTER": 215.7767,
        "MEAN_ANOMALY": 353.7668,
        "EPHEMERIS_TYPE": 0,
        "CLASSIFICATION_TYPE": "U",
        "NORAD_CAT_ID": 23513,
        "ELEMENT_SET_NO": 999,
        "REV_AT_EPOCH": 23333,
        "BSTAR": 0,
        "MEAN_MOTION_DOT": -5.4e-07,
        "MEAN_MOTION_DDOT": 0
    },
    {
        "OBJECT_NAME": "COSMOS 2316 [GLONASS]",
        "OBJECT_ID": "1995-037A",
        "EPOCH": "2025-03-05T22:18:22.918752",
        "MEAN_MOTION": 2.13101314,
        "ECCENTRICITY": 0.0013456,
        "INCLINATION": 65.4735,
        "RA_OF_ASC_NODE": 217.9675,
        "ARG_OF_PERICENTER": 149.7155,
        "MEAN_ANOMALY": 213.3727,
        "EPHEMERIS_TYPE": 0,
        "CLASSIFICATION_TYPE": "U",
        "NORAD_CAT_ID": 23620,
        "ELEMENT_SET_NO": 999,
        "REV_AT_EPOCH": 23046,
        "BSTAR": 0,
        "MEAN_MOTION_DOT": 6.8e-07,
        "MEAN_MOTION_DDOT": 0
    },
    {
        "OBJECT_NAME": "COSMOS 2317 [GLONASS]",
        "OBJECT_ID": "1995-037B",
        "EPOCH": "2025-03-09T09:11:56.623200",
        "MEAN_MOTION": 2.13101552,
        "ECCENTRICITY": 0.0009572,
        "INCLINATION": 65.4833,
        "RA_OF_ASC_NODE": 217.9958,
        "ARG_OF_PERICENTER": 164.1811,
        "MEAN_ANOMALY": 193.4956,
        "EPHEMERIS_TYPE": 0,
        "CLASSIFICATION_TYPE": "U",
        "NORAD_CAT_ID": 23621,
        "ELEMENT_SET_NO": 999,
        "REV_AT_EPOCH": 23034,
        "BSTAR": 0,
        "MEAN_MOTION_DOT": 2.1e-07,
        "MEAN_MOTION_DDOT": 0
    },
    {
        "OBJECT_NAME": "COSMOS 2325 [GLONASS]",
        "OBJECT_ID": "1995-068A",
        "EPOCH": "2025-03-09T07:36:38.729952",
        "MEAN_MOTION": 2.13102642,
        "ECCENTRICITY": 0.0019793,
        "INCLINATION": 65.4774,
        "RA_OF_ASC_NODE": 217.8283,
        "ARG_OF_PERICENTER": 222.2613,
        "MEAN_ANOMALY": 326.4368,
        "EPHEMERIS_TYPE": 0,
        "CLASSIFICATION_TYPE": "U",
        "NORAD_CAT_ID": 23734,
        "ELEMENT_SET_NO": 999,
        "REV_AT_EPOCH": 22748,
        "BSTAR": 0,
        "MEAN_MOTION_DOT": 2.2e-07,
        "MEAN_MOTION_DDOT": 0
    },
    {
        "OBJECT_NAME": "COSMOS 2324 [GLONASS]",
        "OBJECT_ID": "1995-068B",
        "EPOCH": "2025-03-07T18:46:01.745760",
        "MEAN_MOTION": 2.13102571,
        "ECCENTRICITY": 0.0003682,
        "INCLINATION": 65.4749,
        "RA_OF_ASC_NODE": 217.8222,
        "ARG_OF_PERICENTER": 113.2152,
        "MEAN_ANOMALY": 246.7976,
        "EPHEMERIS_TYPE": 0,
        "CLASSIFICATION_TYPE": "U",
        "NORAD_CAT_ID": 23735,
        "ELEMENT_SET_NO": 999,
        "REV_AT_EPOCH": 22752,
        "BSTAR": 0,
        "MEAN_MOTION_DOT": 4.7e-07,
        "MEAN_MOTION_DDOT": 0
    },
    {
        "OBJECT_NAME": "COSMOS 2323 [GLONASS]",
        "OBJECT_ID": "1995-068C",
        "EPOCH": "2025-03-06T10:53:28.458240",
        "MEAN_MOTION": 2.13103385,
        "ECCENTRICITY": 0.0008773,
        "INCLINATION": 65.4663,
        "RA_OF_ASC_NODE": 217.7676,
        "ARG_OF_PERICENTER": 183.1699,
        "MEAN_ANOMALY": 150.1922,
        "EPHEMERIS_TYPE": 0,
        "CLASSIFICATION_TYPE": "U",
        "NORAD_CAT_ID": 23736,
        "ELEMENT_SET_NO": 999,
        "REV_AT_EPOCH": 22723,
        "BSTAR": 0,
        "MEAN_MOTION_DOT": 6.4e-07,
        "MEAN_MOTION_DDOT": 0
    },
    {
        "OBJECT_NAME": "COSMOS 2364 [GLONASS]",
        "OBJECT_ID": "1998-077A",
        "EPOCH": "2025-03-03T20:36:29.729088",
        "MEAN_MOTION": 2.13102806,
        "ECCENTRICITY": 0.0029263,
        "INCLINATION": 64.0249,
        "RA_OF_ASC_NODE": 76.6995,
        "ARG_OF_PERICENTER": 50.5267,
        "MEAN_ANOMALY": 132.0172,
        "EPHEMERIS_TYPE": 0,
        "CLASSIFICATION_TYPE": "U",
        "NORAD_CAT_ID": 25593,
        "ELEMENT_SET_NO": 999,
        "REV_AT_EPOCH": 20363,
        "BSTAR": 0,
        "MEAN_MOTION_DOT": 1.4e-07,
        "MEAN_MOTION_DDOT": 0
    },
    {
        "OBJECT_NAME": "COSMOS 2363 [GLONASS]",
        "OBJECT_ID": "1998-077B",
        "EPOCH": "2025-03-09T03:54:02.672352",
        "MEAN_MOTION": 2.13103589,
        "ECCENTRICITY": 0.0026874,
        "INCLINATION": 64.0239,
        "RA_OF_ASC_NODE": 76.4421,
        "ARG_OF_PERICENTER": 42.9844,
        "MEAN_ANOMALY": 315.7879,
        "EPHEMERIS_TYPE": 0,
        "CLASSIFICATION_TYPE": "U",
        "NORAD_CAT_ID": 25594,
        "ELEMENT_SET_NO": 999,
        "REV_AT_EPOCH": 20376,
        "BSTAR": 0,
        "MEAN_MOTION_DOT": 3e-07,
        "MEAN_MOTION_DDOT": 0
    },
    {
        "OBJECT_NAME": "COSMOS 2362 [GLONASS]",
        "OBJECT_ID": "1998-077C",
        "EPOCH": "2025-03-08T05:49:05.781792",
        "MEAN_MOTION": 2.1310352,
        "ECCENTRICITY": 0.0004923,
        "INCLINATION": 64.0335,
        "RA_OF_ASC_NODE": 76.6028,
        "ARG_OF_PERICENTER": 46.3629,
        "MEAN_ANOMALY": 16.2074,
        "EPHEMERIS_TYPE": 0,
        "CLASSIFICATION_TYPE": "U",
        "NORAD_CAT_ID": 25595,
        "ELEMENT_SET_NO": 999,
        "REV_AT_EPOCH": 20375,
        "BSTAR": 0,
        "MEAN_MOTION_DOT": 2.5e-07,
        "MEAN_MOTION_DDOT": 0
    },
    {
        "OBJECT_NAME": "COSMOS 2375 [GLONASS]",
        "OBJECT_ID": "2000-063A",
        "EPOCH": "2025-03-05T00:50:12.854400",
        "MEAN_MOTION": 2.13101722,
        "ECCENTRICITY": 0.0007445,
        "INCLINATION": 65.4585,
        "RA_OF_ASC_NODE": 329.7837,
        "ARG_OF_PERICENTER": 15.3903,
        "MEAN_ANOMALY": 344.6768,
        "EPHEMERIS_TYPE": 0,
        "CLASSIFICATION_TYPE": "U",
        "NORAD_CAT_ID": 26564,
        "ELEMENT_SET_NO": 999,
        "REV_AT_EPOCH": 18978,
        "BSTAR": 0,
        "MEAN_MOTION_DOT": -6.7e-07,
        "MEAN_MOTION_DDOT": 0
    }
]